     2.100          NAVIGATION                              RINEX VERSION / TYPE
fic2rin                                 08/07/2014 00:36:37 PGM / RUN BY / DATE
                                                            END OF HEADER
27 14  8  6 20  0  0.0  .384915620089D-05  .329691829393D-11  .000000000000D+00
     .150000000000D+02 -.900000000000D+02  .431160816722D-08 -.271663776431D+01
    -.471249222755D-05  .142355740536D-02  .109057873487D-04  .515368396759D+04
     .331200000000D+06 -.577419996262D-07  .227921266873D+01 -.130385160446D-07
     .964239462638D+00  .172468750000D+03  .309953041165D+00 -.787782814316D-08
     .184650548579D-09  .100000000000D+01  .180400000000D+04  .000000000000D+00
     .240000000000D+01  .000000000000D+00  .186264514923D-08  .150000000000D+02
     .324006000000D+06  .400000000000D+01
28 14  8  6 20  0  0.0  .375237781554D-03  .284217094304D-11  .000000000000D+00
     .250000000000D+02 -.720000000000D+02  .404659712844D-08 -.177882365949D+01
    -.331550836563D-05  .191994595807D-01  .277906656265D-05  .515367726517D+04
     .331200000000D+06  .376254320145D-06  .129961081515D+01  .311061739922D-06
     .986970909883D+00  .333937500000D+03 -.171127741680D+01 -.793175896103D-08
    -.657170230921D-10  .100000000000D+01  .180400000000D+04  .000000000000D+00
     .240000000000D+01  .000000000000D+00 -.107102096081D-07  .250000000000D+02
     .324006000000D+06  .400000000000D+01
29 14  8  6 20  0  0.0  .551870558411D-03  .261479726760D-11  .000000000000D+00
     .440000000000D+02 -.714062500000D+02  .432660879205D-08  .622752025607D-01
    -.369362533092D-05  .129034603015D-02  .100843608379D-04  .515366628265D+04
     .331200000000D+06 -.130385160446D-07  .233431777624D+01 -.204890966415D-07
     .970253463271D+00  .191937500000D+03 -.797293118116D+00 -.789532887214D-08
     .199651173416D-09  .100000000000D+01  .180400000000D+04  .000000000000D+00
     .240000000000D+01  .000000000000D+00 -.977888703346D-08  .440000000000D+02
     .324006000000D+06  .400000000000D+01
30 14  8  6 20  0  0.0 -.445395708084D-04 -.568434188608D-11  .000000000000D+00
     .310000000000D+02  .102062500000D+03  .454268922124D-08  .924262850343D+00
     .530667603016D-05  .960352132097D-03  .426359474659D-05  .515367690086D+04
     .331200000000D+06 -.428408384323D-07  .264826658796D+00  .298023223877D-07
     .958798716695D+00  .295250000000D+03  .296291643588D+01 -.831856078716D-08
     .271797035723D-09  .100000000000D+01  .180400000000D+04  .000000000000D+00
     .240000000000D+01  .000000000000D+00  .325962901115D-08  .310000000000D+02
     .324006000000D+06  .400000000000D+01
31 14  8  6 20  0  0.0  .332940835506D-03 -.341060513165D-12  .000000000000D+00
     .900000000000D+02  .910625000000D+02  .412088593715D-08  .848142624728D+00
     .481121242046D-05  .797751545906D-02  .458396971226D-05  .515359993362D+04
     .331200000000D+06  .204890966415D-06  .217832937570D+00 -.171363353729D-06
     .978136684073D+00  .297000000000D+03 -.633438125766D+00 -.816212569958D-08
     .288226291496D-09  .100000000000D+01  .180400000000D+04  .000000000000D+00
     .340000000000D+01  .000000000000D+00 -.130385160446D-07  .900000000000D+02
     .324006000000D+06  .400000000000D+01
32 14  8  6 20  0  0.0 -.368692912161D-03  .841282599140D-11  .000000000000D+00
     .190000000000D+02 -.615625000000D+01  .508878339683D-08  .142715258492D+01
    -.240281224251D-06  .114074826706D-01  .704079866409D-05  .515367551041D+04
     .331200000000D+06  .521540641785D-07 -.182283277621D+01  .184401869774D-06
     .947185344449D+00  .234562500000D+03 -.119416313140D+00 -.821748514838D-08
    -.612168356412D-09  .100000000000D+01  .180400000000D+04  .000000000000D+00
     .240000000000D+01  .000000000000D+00 -.325962901115D-08  .190000000000D+02
     .324006000000D+06  .400000000000D+01
 3 14  8  6 19 59 28.0  .400465447456D-03  .500222085975D-11  .000000000000D+00
     .460000000000D+02 -.123406250000D+03  .484270171796D-08  .217941894392D+01
    -.645220279694D-05  .173169465270D-01  .972859561443D-05  .515382645035D+04
     .331168000000D+06  .184401869774D-06  .212809843767D+01 -.232830643654D-06
     .939143827133D+00  .178375000000D+03  .141226367034D+01 -.794354516626D-08
     .614311302817D-10  .100000000000D+01  .180400000000D+04  .000000000000D+00
     .240000000000D+01  .630000000000D+02 -.465661287308D-08  .460000000000D+02
     .324816000000D+06  .400000000000D+01
31 14  8  6 19 59 44.0  .332938507199D-03 -.341060513165D-12  .000000000000D+00
     .800000000000D+01  .910625000000D+02  .412088593715D-08  .845808813961D+00
     .481121242046D-05  .797751487698D-02  .458396971226D-05  .515359993744D+04
     .331184000000D+06  .204890966415D-06  .217833060456D+00 -.171363353729D-06
     .978136685536D+00  .297000000000D+03 -.633438182820D+00 -.816212569958D-08
     .288226291496D-09  .100000000000D+01  .180400000000D+04  .000000000000D+00
     .240000000000D+01  .000000000000D+00 -.130385160446D-07  .800000000000D+01
     .325236000000D+06  .400000000000D+01
16 14  8  6 19 59 28.0 -.203054398298D-03  .227373675443D-11  .000000000000D+00
     .220000000000D+02 -.781875000000D+02  .405266880992D-08 -.167815253932D+01
    -.433251261711D-05  .765806785785D-02  .380165874958D-05  .515364037323D+04
     .331168000000D+06  .409781932831D-07  .129390625241D+01 -.651925802231D-07
     .988427514008D+00  .317250000000D+03  .239200063026D+00 -.811355224773D-08
    -.217866217860D-10  .100000000000D+01  .180400000000D+04  .000000000000D+00
     .240000000000D+01  .000000000000D+00 -.102445483208D-07  .220000000000D+02
     .327606000000D+06  .400000000000D+01
14 14  8  6 19 59 44.0  .147296581417D-03 -.363797880709D-11  .000000000000D+00
     .100000000000D+01  .661875000000D+02  .395587906396D-08 -.270175299710D+01
     .351853668690D-05  .782941887155D-02  .103712081909D-04  .515370018387D+04
     .331184000000D+06  .298023223877D-07 -.784409631615D+00 -.577419996262D-07
     .969364367494D+00  .184625000000D+03 -.199105481895D+01 -.754352850396D-08
    -.217151902391D-09  .100000000000D+01  .180400000000D+04  .000000000000D+00
     .240000000000D+01  .000000000000D+00 -.884756445885D-08  .100000000000D+01
     .328416000000D+06  .400000000000D+01
 6 14  8  6 19 59 44.0 -.333553180099D-05 -.147792889038D-11  .000000000000D+00
     .000000000000D+00  .531250000000D+01  .471019619858D-08 -.189819071618D+01
     .251457095146D-06  .434672692791D-03  .826083123684D-05  .515357300758D+04
     .331184000000D+06 -.428408384323D-07 -.295741101871D+01 -.447034835815D-07
     .961415433875D+00  .218406250000D+03  .219503286754D+01 -.800283335013D-08
     .363943731146D-09  .100000000000D+01  .180400000000D+04  .000000000000D+00
     .240000000000D+01  .000000000000D+00  .465661287308D-08  .000000000000D+00
     .328686000000D+06  .400000000000D+01
15 14  8  6 19 59 28.0 -.195370987058D-03 -.216004991671D-11  .000000000000D+00
     .000000000000D+00  .462187500000D+02  .480198573627D-08  .296551250836D+01
     .239722430706D-05  .639889156446D-02  .104438513517D-04  .515374303055D+04
     .331168000000D+06 -.353902578354D-07 -.898758813461D+00 -.298023223877D-07
     .935867085203D+00  .166093750000D+03  .270795398207D+00 -.806462163815D-08
    -.316798910232D-09  .100000000000D+01  .180400000000D+04  .000000000000D+00
     .240000000000D+01  .000000000000D+00 -.102445483208D-07  .000000000000D+00
     .330486000000D+06  .400000000000D+01
 3 14  8  6 21 59 28.0  .400500837713D-03  .500222085975D-11  .000000000000D+00
     .580000000000D+02 -.110343750000D+03  .472841124302D-08 -.305372751599D+01
    -.595115125179D-05  .173153954092D-01  .970438122749D-05  .515382966805D+04
     .338368000000D+06  .264495611191D-06  .212804124781D+01 -.745058059692D-07
     .939144327451D+00  .174968750000D+03  .141231324132D+01 -.792997317236D-08
     .114290474943D-09  .100000000000D+01  .180400000000D+04  .000000000000D+00
     .240000000000D+01  .630000000000D+02 -.465661287308D-08  .580000000000D+02
     .331206000000D+06  .400000000000D+01
15 14  8  6 21 59 28.0 -.195386819541D-03 -.216004991671D-11  .000000000000D+00
     .100000000000D+02  .379062500000D+02  .483948729836D-08 -.226755148247D+01
     .199675559998D-05  .640045013279D-02  .109057873487D-04  .515374021149D+04
     .338368000000D+06 -.409781932831D-07 -.898816699666D+00 -.745058059692D-08
     .935864849865D+00  .156718750000D+03  .270816107275D+00 -.804212070089D-08
    -.329656588663D-09  .100000000000D+01  .180400000000D+04  .000000000000D+00
     .240000000000D+01  .000000000000D+00 -.102445483208D-07  .100000000000D+02
     .331206000000D+06  .400000000000D+01
16 14  8  6 21 59 28.0 -.203037634492D-03  .227373675443D-11  .000000000000D+00
     .230000000000D+02 -.625625000000D+02  .404516849750D-08 -.628206501037D+00
    -.316277146339D-05  .765705481172D-02  .356696546078D-05  .515363624191D+04
     .338368000000D+06  .968575477600D-07  .129384796829D+01 -.111758708954D-07
     .988427089761D+00  .319250000000D+03  .239452795290D+00 -.816069706865D-08
    -.617882880159D-10  .100000000000D+01  .180400000000D+04  .000000000000D+00
     .240000000000D+01  .000000000000D+00 -.102445483208D-07  .230000000000D+02
     .331206000000D+06  .400000000000D+01
 6 14  8  6 21 59 44.0 -.334624201059D-05 -.147792889038D-11  .000000000000D+00
     .100000000000D+01  .421875000000D+01  .480912889095D-08 -.848305185647D+00
     .406056642532D-06  .434811925516D-03  .840239226818D-05  .515357276917D+04
     .338384000000D+06  .856816768646D-07 -.295746938329D+01 -.707805156708D-07
     .961418039332D+00  .215968750000D+03  .219539208708D+01 -.807747931658D-08
     .451090218290D-09  .100000000000D+01  .180400000000D+04  .000000000000D+00
     .240000000000D+01  .000000000000D+00  .465661287308D-08  .100000000000D+01
     .331206000000D+06  .400000000000D+01
